{
  "type": "FeatureCollection",
  "features": [
    {
      "type": "Feature",
      "properties": {
        "alert_id": "MOCK-CA-WILDFIRE-001",
        "event_type": "Red Flag Warning",
        "severity": "Severe",
        "urgency": "Immediate",
        "certainty": "Likely",
        "headline": "Red Flag Warning issued for the Bay Area",
        "description": "Critical fire weather conditions expected in the East Bay Hills. Strong offshore winds and low humidity create extreme wildfire potential.",
        "instruction": "Avoid all outdoor burning. Evacuate immediately if directed by local authorities."
      },
      "geometry": {
        "type": "Polygon",
        "coordinates": [[
          [-122.30, 37.85], [-122.20, 37.85],
          [-122.18, 37.78], [-122.25, 37.72],
          [-122.32, 37.76], [-122.30, 37.85]
        ]]
      }
    },
    {
      "type": "Feature",
      "properties": {
        "alert_id": "MOCK-CA-FLOOD-002",
        "event_type": "Flash Flood Warning",
        "severity": "Severe",
        "urgency": "Immediate",
        "certainty": "Observed",
        "headline": "Flash Flood Warning for southern San Francisco",
        "description": "Heavy rainfall is producing flash flooding in low-lying areas. Move to higher ground immediately.",
        "instruction": "Turn around, do not drown. Avoid flooded roadways."
      },
      "geometry": {
        "type": "Polygon",
        "coordinates": [[
          [-122.45, 37.74], [-122.38, 37.74],
          [-122.36, 37.68], [-122.43, 37.66],
          [-122.47, 37.70], [-122.45, 37.74]
        ]]
      }
    }
  ]
}
